[{"OBJECT_NAME":"QIANFAN-18","OBJECT_ID":"2024-140T","EPOCH":"2026-02-01T21:23:59.341920","MEAN_MOTION":13.50991386,"ECCENTRICITY":0.00158086,"INCLINATION":88.9771,"RA_OF_ASC_NODE":293.6853,"ARG_OF_PERICENTER":44.526,"MEAN_ANOMALY":315.7158,"EPHEMERIS_TYPE":0,"CLASSIFICATION_TYPE":"U","NORAD_CAT_ID":60396,"ELEMENT_SET_NO":999,"REV_AT_EPOCH":7443,"BSTAR":0.00021108396,"MEAN_MOTION_DOT":1.48e-6,"MEAN_MOTION_DDOT":0},{"OBJECT_NAME":"QIANFAN-19","OBJECT_ID":"2024-185A","EPOCH":"2026-02-01T21:04:56.918784","MEAN_MOTION":14.14356076,"ECCENTRICITY":0.00087345,"INCLINATION":88.9768,"RA_OF_ASC_NODE":72.0789,"ARG_OF_PERICENTER":129.6252,"MEAN_ANOMALY":230.5708,"EPHEMERIS_TYPE":0,"CLASSIFICATION_TYPE":"U","NORAD_CAT_ID":61552,"ELEMENT_SET_NO":999,"REV_AT_EPOCH":7689,"BSTAR":0.00023382143,"MEAN_MOTION_DOT":4.61e-6,"MEAN_MOTION_DDOT":0},{"OBJECT_NAME":"QIANFAN-20","OBJECT_ID":"2024-185B","EPOCH":"2026-02-01T21:29:44.892672","MEAN_MOTION":14.08902723,"ECCENTRICITY":0.00064418,"INCLINATION":88.9766,"RA_OF_ASC_NODE":72.4524,"ARG_OF_PERICENTER":161.2173,"MEAN_ANOMALY":198.925,"EPHEMERIS_TYPE":0,"CLASSIFICATION_TYPE":"U","NORAD_CAT_ID":61553,"ELEMENT_SET_NO":999,"REV_AT_EPOCH":7669,"BSTAR":0.00031905414,"MEAN_MOTION_DOT":5.65e-6,"MEAN_MOTION_DDOT":0},{"OBJECT_NAME":"QIANFAN-21","OBJECT_ID":"2024-185C","EPOCH":"2026-02-01T21:14:30.397920","MEAN_MOTION":14.22687178,"ECCENTRICITY":0.0010406,"INCLINATION":88.9683,"RA_OF_ASC_NODE":70.9858,"ARG_OF_PERICENTER":184.203,"MEAN_ANOMALY":175.9076,"EPHEMERIS_TYPE":0,"CLASSIFICATION_TYPE":"U","NORAD_CAT_ID":61554,"ELEMENT_SET_NO":999,"REV_AT_EPOCH":7724,"BSTAR":0.000247585,"MEAN_MOTION_DOT":5.69e-6,"MEAN_MOTION_DDOT":0},{"OBJECT_NAME":"QIANFAN-22","OBJECT_ID":"2024-185D","EPOCH":"2026-02-01T21:24:19.495584","MEAN_MOTION":13.86324878,"ECCENTRICITY":0.00062918,"INCLINATION":88.9752,"RA_OF_ASC_NODE":73.6403,"ARG_OF_PERICENTER":180.9772,"MEAN_ANOMALY":179.1388,"EPHEMERIS_TYPE":0,"CLASSIFICATION_TYPE":"U","NORAD_CAT_ID":61555,"ELEMENT_SET_NO":999,"REV_AT_EPOCH":7602,"BSTAR":0.00020938017,"MEAN_MOTION_DOT":2.55e-6,"MEAN_MOTION_DDOT":0},{"OBJECT_NAME":"QIANFAN-23","OBJECT_ID":"2024-185E","EPOCH":"2026-02-01T20:27:32.980320","MEAN_MOTION":14.16355569,"ECCENTRICITY":0.00091076,"INCLINATION":88.976,"RA_OF_ASC_NODE":71.8674,"ARG_OF_PERICENTER":139.9117,"MEAN_ANOMALY":220.2744,"EPHEMERIS_TYPE":0,"CLASSIFICATION_TYPE":"U","NORAD_CAT_ID":61556,"ELEMENT_SET_NO":999,"REV_AT_EPOCH":7698,"BSTAR":0.00026907398,"MEAN_MOTION_DOT":5.48e-6,"MEAN_MOTION_DDOT":0},{"OBJECT_NAME":"QIANFAN-24","OBJECT_ID":"2024-185F","EPOCH":"2026-02-01T21:57:31.843296","MEAN_MOTION":14.23887169,"ECCENTRICITY":0.00114625,"INCLINATION":88.9742,"RA_OF_ASC_NODE":71.1813,"ARG_OF_PERICENTER":124.4427,"MEAN_ANOMALY":235.7851,"EPHEMERIS_TYPE":0,"CLASSIFICATION_TYPE":"U","NORAD_CAT_ID":61557,"ELEMENT_SET_NO":999,"REV_AT_EPOCH":7730,"BSTAR":0.00028193211,"MEAN_MOTION_DOT":6.6e-6,"MEAN_MOTION_DDOT":0},{"OBJECT_NAME":"QIANFAN-25","OBJECT_ID":"2024-185G","EPOCH":"2026-02-01T21:29:10.333536","MEAN_MOTION":14.05963119,"ECCENTRICITY":0.00115849,"INCLINATION":88.9752,"RA_OF_ASC_NODE":72.397,"ARG_OF_PERICENTER":148.9974,"MEAN_ANOMALY":211.1894,"EPHEMERIS_TYPE":0,"CLASSIFICATION_TYPE":"U","NORAD_CAT_ID":61558,"ELEMENT_SET_NO":999,"REV_AT_EPOCH":7669,"BSTAR":0.00030902418,"MEAN_MOTION_DOT":5.2e-6,"MEAN_MOTION_DDOT":0},{"OBJECT_NAME":"QIANFAN-26","OBJECT_ID":"2024-185H","EPOCH":"2026-02-01T20:59:29.683968","MEAN_MOTION":13.77845752,"ECCENTRICITY":0.00050225,"INCLINATION":88.9759,"RA_OF_ASC_NODE":74.2307,"ARG_OF_PERICENTER":195.1231,"MEAN_ANOMALY":164.9786,"EPHEMERIS_TYPE":0,"CLASSIFICATION_TYPE":"U","NORAD_CAT_ID":61559,"ELEMENT_SET_NO":999,"REV_AT_EPOCH":7571,"BSTAR":0.00012497081,"MEAN_MOTION_DOT":1.38e-6,"MEAN_MOTION_DDOT":0},{"OBJECT_NAME":"QIANFAN-27","OBJECT_ID":"2024-185J","EPOCH":"2026-02-01T20:30:05.483232","MEAN_MOTION":14.27406208,"ECCENTRICITY":0.00098587,"INCLINATION":88.9754,"RA_OF_ASC_NODE":70.9482,"ARG_OF_PERICENTER":115.5092,"MEAN_ANOMALY":244.7123,"EPHEMERIS_TYPE":0,"CLASSIFICATION_TYPE":"U","NORAD_CAT_ID":61560,"ELEMENT_SET_NO":999,"REV_AT_EPOCH":7745,"BSTAR":0.00017266741,"MEAN_MOTION_DOT":4.38e-6,"MEAN_MOTION_DDOT":0},{"OBJECT_NAME":"QIANFAN-28","OBJECT_ID":"2024-185K","EPOCH":"2026-02-01T21:08:02.707296","MEAN_MOTION":14.28153063,"ECCENTRICITY":0.00093909,"INCLINATION":88.977,"RA_OF_ASC_NODE":70.9514,"ARG_OF_PERICENTER":114.7047,"MEAN_ANOMALY":245.5126,"EPHEMERIS_TYPE":0,"CLASSIFICATION_TYPE":"U","NORAD_CAT_ID":61561,"ELEMENT_SET_NO":999,"REV_AT_EPOCH":7747,"BSTAR":0.00031456778,"MEAN_MOTION_DOT":7.97e-6,"MEAN_MOTION_DDOT":0},{"OBJECT_NAME":"QIANFAN-29","OBJECT_ID":"2024-185L","EPOCH":"2026-02-01T21:58:55.254720","MEAN_MOTION":13.51031226,"ECCENTRICITY":0.00079229,"INCLINATION":88.9735,"RA_OF_ASC_NODE":76.0216,"ARG_OF_PERICENTER":259.3062,"MEAN_ANOMALY":100.7197,"EPHEMERIS_TYPE":0,"CLASSIFICATION_TYPE":"U","NORAD_CAT_ID":61562,"ELEMENT_SET_NO":999,"REV_AT_EPOCH":7470,"BSTAR":0.00028785617,"MEAN_MOTION_DOT":1.98e-6,"MEAN_MOTION_DDOT":0},{"OBJECT_NAME":"QIANFAN-30","OBJECT_ID":"2024-185M","EPOCH":"2026-02-01T22:18:32.124672","MEAN_MOTION":13.50007695,"ECCENTRICITY":0.00058912,"INCLINATION":88.9755,"RA_OF_ASC_NODE":75.5654,"ARG_OF_PERICENTER":238.442,"MEAN_ANOMALY":121.6156,"EPHEMERIS_TYPE":0,"CLASSIFICATION_TYPE":"U","NORAD_CAT_ID":61563,"ELEMENT_SET_NO":999,"REV_AT_EPOCH":7497,"BSTAR":0.00019652661,"MEAN_MOTION_DOT":1.37e-6,"MEAN_MOTION_DDOT":0},{"OBJECT_NAME":"QIANFAN-31","OBJECT_ID":"2024-185N","EPOCH":"2026-02-01T21:24:39.783168","MEAN_MOTION":13.57990147,"ECCENTRICITY":0.00054787,"INCLINATION":88.9739,"RA_OF_ASC_NODE":75.2897,"ARG_OF_PERICENTER":228.1812,"MEAN_ANOMALY":131.8876,"EPHEMERIS_TYPE":0,"CLASSIFICATION_TYPE":"U","NORAD_CAT_ID":61564,"ELEMENT_SET_NO":999,"REV_AT_EPOCH":7510,"BSTAR":0.00022974186,"MEAN_MOTION_DOT":1.78e-6,"MEAN_MOTION_DDOT":0},{"OBJECT_NAME":"QIANFAN-32","OBJECT_ID":"2024-185P","EPOCH":"2026-02-01T22:39:00.418176","MEAN_MOTION":13.50755114,"ECCENTRICITY":0.00075672,"INCLINATION":88.9799,"RA_OF_ASC_NODE":75.7135,"ARG_OF_PERICENTER":275.3496,"MEAN_ANOMALY":84.6792,"EPHEMERIS_TYPE":0,"CLASSIFICATION_TYPE":"U","NORAD_CAT_ID":61565,"ELEMENT_SET_NO":999,"REV_AT_EPOCH":7495,"BSTAR":0.00022526205,"MEAN_MOTION_DOT":1.57e-6,"MEAN_MOTION_DDOT":0},{"OBJECT_NAME":"QIANFAN-33","OBJECT_ID":"2024-185Q","EPOCH":"2026-02-01T22:01:52.385952","MEAN_MOTION":13.96596174,"ECCENTRICITY":0.00081236,"INCLINATION":88.9748,"RA_OF_ASC_NODE":73.1006,"ARG_OF_PERICENTER":151.774,"MEAN_ANOMALY":208.3879,"EPHEMERIS_TYPE":0,"CLASSIFICATION_TYPE":"U","NORAD_CAT_ID":61566,"ELEMENT_SET_NO":999,"REV_AT_EPOCH":7630,"BSTAR":0.00022129548,"MEAN_MOTION_DOT":3.2e-6,"MEAN_MOTION_DDOT":0},{"OBJECT_NAME":"QIANFAN-34","OBJECT_ID":"2024-185R","EPOCH":"2026-02-01T21:18:02.469312","MEAN_MOTION":14.02356276,"ECCENTRICITY":0.00067909,"INCLINATION":88.9724,"RA_OF_ASC_NODE":72.5994,"ARG_OF_PERICENTER":147.7274,"MEAN_ANOMALY":212.4323,"EPHEMERIS_TYPE":0,"CLASSIFICATION_TYPE":"U","NORAD_CAT_ID":61567,"ELEMENT_SET_NO":999,"REV_AT_EPOCH":7652,"BSTAR":0.00028380929,"MEAN_MOTION_DOT":4.49e-6,"MEAN_MOTION_DDOT":0}]
