QIANFAN-18              
1 60396U 24140T   26032.89165905  .00000148  00000+0  21108-3 0  9998
2 60396  88.9771 293.6853 0015808  44.5260 315.7158 13.50991386 74438
QIANFAN-19              
1 61552U 24185A   26032.87843656  .00000461  00000+0  23382-3 0  9990
2 61552  88.9768  72.0789 0008734 129.6252 230.5708 14.14356076 76891
QIANFAN-20              
1 61553U 24185B   26032.89565848  .00000565  00000+0  31905-3 0  9992
2 61553  88.9766  72.4524 0006441 161.2173 198.9250 14.08902723 76694
QIANFAN-21              
1 61554U 24185C   26032.88507405  .00000569  00000+0  24758-3 0  9999
2 61554  88.9683  70.9858 0010406 184.2030 175.9076 14.22687178 77242
QIANFAN-22              
1 61555U 24185D   26032.89189231  .00000255  00000+0  20938-3 0  9992
2 61555  88.9752  73.6403 0006291 180.9772 179.1388 13.86324878 76020
QIANFAN-23              
1 61556U 24185E   26032.85246505  .00000548  00000+0  26907-3 0  9994
2 61556  88.9760  71.8674 0009107 139.9117 220.2744 14.16355569 76980
QIANFAN-24              
1 61557U 24185F   26032.91495189  .00000660  00000+0  28193-3 0  9990
2 61557  88.9742  71.1813 0011462 124.4427 235.7851 14.23887169 77300
QIANFAN-25              
1 61558U 24185G   26032.89525849  .00000520  00000+0  30902-3 0  9991
2 61558  88.9752  72.3970 0011584 148.9974 211.1894 14.05963119 76698
QIANFAN-26              
1 61559U 24185H   26032.87464912  .00000138  00000+0  12497-3 0  9997
2 61559  88.9759  74.2307 0005022 195.1231 164.9786 13.77845752 75718
QIANFAN-27              
1 61560U 24185J   26032.85423013  .00000438  00000+0  17267-3 0  9997
2 61560  88.9754  70.9482 0009858 115.5092 244.7123 14.27406208 77454
QIANFAN-28              
1 61561U 24185K   26032.88058689  .00000797  00000+0  31457-3 0  9999
2 61561  88.9770  70.9514 0009390 114.7047 245.5126 14.28153063 77474
QIANFAN-29              
1 61562U 24185L   26032.91591730  .00000198  00000+0  28786-3 0  9999
2 61562  88.9735  76.0216 0007922 259.3062 100.7197 13.51031226 74708
QIANFAN-30              
1 61563U 24185M   26032.92953848  .00000137  00000+0  19653-3 0  9999
2 61563  88.9755  75.5654 0005891 238.4420 121.6156 13.50007695 74978
QIANFAN-31              
1 61564U 24185N   26032.89212712  .00000178  00000+0  22974-3 0  9999
2 61564  88.9739  75.2897 0005478 228.1812 131.8876 13.57990147 75107
QIANFAN-32              
1 61565U 24185P   26032.94375484  .00000157  00000+0  22526-3 0  9992
2 61565  88.9799  75.7135 0007567 275.3496  84.6792 13.50755114 74957
QIANFAN-33              
1 61566U 24185Q   26032.91796743  .00000320  00000+0  22130-3 0  9998
2 61566  88.9748  73.1006 0008123 151.7740 208.3879 13.96596174 76300
QIANFAN-34              
1 61567U 24185R   26032.88752858  .00000449  00000+0  28381-3 0  9990
2 61567  88.9724  72.5994 0006790 147.7274 212.4323 14.02356276 76528
